0 METEOR 2-17 DEB
1 35368U 88005AC  13281.68754107  .00001329  00000-0  10321-2 0  3234
2 35368 082.5680 049.4878 0027601 105.5628 254.8421 13.91672674331682
0 METEOR 2-17 DEB
1 35368U 88005AC  13283.05358265  .00001391  00000-0  10806-2 0  3240
2 35368 082.5731 048.3914 0029237 105.4592 255.0440 13.91678355331871
0 METEOR 2-17 DEB
1 35368U 88005AC  13284.06011163  .00001462  00000-0  11369-2 0  3250
2 35368 082.5712 047.5824 0027729 102.3657 258.0709 13.91683328332017
0 METEOR 2-17 DEB
1 35368U 88005AC  13287.07974070  .00001549  00000-0  12049-2 0  3262
2 35368 082.5741 045.1630 0027980 096.2626 264.2271 13.91694833332436
0 METEOR 2-17 DEB
1 35368U 88005AC  13289.02090868  .00001611  00000-0  12536-2 0  3275
2 35368 082.5705 043.6054 0027787 090.4330 270.0429 13.91702656332705
0 METEOR 2-17 DEB
1 35368U 88005AC  13289.66795720  .00001698  00000-0  13212-2 0  3282
2 35368 082.5726 043.0882 0028033 086.8247 273.6449 13.91707103332794
0 METEOR 2-17 DEB
1 35368U 88005AC  13291.03394832  .00001751  00000-0  13625-2 0  3294
2 35368 082.5717 041.9922 0028198 082.5110 277.9368 13.91713385332987
0 METEOR 2-17 DEB
1 35368U 88005AC  13293.04698915  .00001770  00000-0  13779-2 0  3309
2 35368 082.5705 040.3777 0027536 075.4857 284.9472 13.91721116333266
